STARLINK-33570          
1 62776C 25015U   26200.21159722 -.00000158  00000+0 -46711-5 0  2004
2 62776  53.1584  69.3845 0001292  89.3092  78.5970 15.34380322    14
STARLINK-33591          
1 62777C 25015V   26200.16993056  .00020765  00000+0  61345-3 0  2007
2 62777  53.1578  69.6504 0001281  81.0647 181.6066 15.34383397    13
STARLINK-33573          
1 62778C 25015W   26200.20534722 -.00003825  00000+0 -11305-3 0  2005
2 62778  53.1588  69.9137 0001308  76.8397 160.6813 15.34378148    19
STARLINK-33568          
1 62779C 25015X   26200.20326389 -.00001742  00000+0 -51468-4 0  2005
2 62779  53.1583  69.9049 0001258  87.6571 149.9750 15.34384279    17
STARLINK-33593          
1 62780C 25015Y   26200.18520833  .00008200  00000+0  24233-3 0  2007
2 62780  53.1570  69.7332 0001125  81.3512 184.4077 15.34379336    11
STARLINK-33588          
1 62781C 25015Z   26200.19562500  .00000449  00000+0  13273-4 0  2006
2 62781  53.1574  67.4672 0001093  97.1548 241.0055 15.34370433    11
STARLINK-33585          
1 62782C 25015AA  26200.18173611  .00010391  00000+0  33448-3 0  2009
2 62782  53.1568  70.4449 0001126  71.0069 184.1979 15.31665031    17
STARLINK-33582          
1 62783C 25015AB  26200.15534722  .00084214  00000+0  16877-2 0  2002
2 62783  53.1519  65.5990 0003355 106.0025 347.0662 15.46085253    14
STARLINK-33581          
1 62784C 25015AC  26200.17270833  .00019742  00000+0  63507-3 0  2002
2 62784  53.1578  71.0507 0001089  76.4618 201.8898 15.31680660    11
STARLINK-32883          
1 62806C 25018A   26200.19284722 -.00013295  00000+0 -39286-3 0  2000
2 62806  53.1595  57.3084 0001252  79.9179 255.0627 15.34392659    16
STARLINK-32886          
1 62807C 25018B   26200.15256944  .00017006  00000+0  50267-3 0  2006
2 62807  53.1592  57.5619 0001112  80.4517 357.0548 15.34368133    13
STARLINK-32848          
1 62808C 25018C   26200.18173611 -.00009125  00000+0 -29346-3 0  2008
2 62808  53.1581  57.9157 0001276  82.3417 266.5875 15.31703941    18
STARLINK-32787          
1 62809C 25018D   26200.16645833 -.00007125  00000+0 -21062-3 0  2002
2 62809  53.1576  57.8444 0001276  90.9325 248.8875 15.34378847    13
STARLINK-32851          
1 62810C 25018E   26200.17826389 -.00008845  00000+0 -29809-3 0  2009
2 62810  53.1597  58.7848 0001391  81.4951 175.5683 15.30197255    15
STARLINK-32847          
1 62811C 25018F   26200.19493056 -.00010130  00000+0 -34150-3 0  2008
2 62811  53.1575  58.5083 0001252  81.3136   6.5206 15.30189624    16
STARLINK-32837          
1 62812C 25018G   26200.19979167 -.00010965  00000+0 -32396-3 0  2007
2 62812  53.1596  57.9269 0001270  81.9316 325.8051 15.34396995    15
STARLINK-32855          
1 62813C 25018H   26200.18937500 -.00013254  00000+0 -39175-3 0  2008
2 62813  53.1591  57.4133 0001234  80.9002 188.3833 15.34384629    18
STARLINK-32843          
1 62814C 25018J   26200.19006944 -.00013672  00000+0 -43975-3 0  2006
2 62814  53.1589  58.0283 0001301  82.5230 235.1367 15.31702793    11
STARLINK-32845          
1 62815C 25018K   26200.20465278 -.00015045  00000+0 -46780-3 0  2001
2 62815  53.1581  58.2310 0001998 218.6689  42.5946 15.32782337    15
STARLINK-32854          
1 62816C 25018L   26200.18868056 -.00010710  00000+0 -31677-3 0  2003
2 62816  53.1599  57.9900 0001704  85.4490 249.3748 15.34361451    10
STARLINK-32824          
1 62817C 25018M   26200.14909722  .00011016  00000+0  37132-3 0  2006
2 62817  53.1583  58.7777 0001348  83.1794  82.9441 15.30182915    14
STARLINK-32853          
1 62818C 25018N   26200.15187500  .00015497  00000+0  45789-3 0  2004
2 62818  53.1583  57.6556 0001241  83.8503 303.2771 15.34381638    17
STARLINK-32856          
1 62819C 25018P   26200.15951389  .00009945  00000+0  29395-3 0  2005
2 62819  53.1580  57.7143 0001192  77.3447 305.5187 15.34371268    12
STARLINK-32844          
1 62820C 25018Q   26200.20673611 -.00014932  00000+0 -48015-3 0  2006
2 62820  53.1585  57.8463 0001317  85.7166  15.3799 15.31710343    18
STARLINK-32782          
1 62821C 25018R   26200.18868056 -.00005749  00000+0 -16989-3 0  2004
2 62821  53.1580  57.8045 0001199  83.8336 343.9154 15.34388954    13
STARLINK-32842          
1 62822C 25018S   26200.14701389  .00019280  00000+0  56984-3 0  2008
2 62822  53.1594  57.5411 0001227  80.7950 349.2782 15.34369017    18
STARLINK-32852          
1 62824C 25018U   26200.15881944  .00012652  00000+0  42638-3 0  2004
2 62824  53.1589  59.0212 0001281  85.1115 349.1677 15.30186755    16
STARLINK-32825          
1 62825C 25018V   26200.18104167 -.00005763  00000+0 -19426-3 0  2009
2 62825  53.1568  56.2386 0001466 106.8741   6.1982 15.30188161    18
STARLINK-32704          
1 62826C 25018W   26200.14354167  .00022198  00000+0  45571-3 0  2002
2 62826  53.1512  53.6812 0004594 126.5533  78.5780 15.45408858    19
STARLINK-32727          
1 62828C 25018Y   26200.20465278 -.00018004  00000+0 -53214-3 0  2003
2 62828  53.1588  53.4871 0001294  82.6887  64.8306 15.34387813    12
STARLINK-11548 [DTC]    
1 62829C 25019A   26200.20187500 -.00004054  00000+0 -31506-4 0  2005
2 62829  43.0005 232.9791 0001512 256.5727 241.9852 15.70824655    12
STARLINK-11480 [DTC]    
1 62830C 25019B   26200.15326389  .00026300  00000+0  20435-3 0  2005
2 62830  43.0005 233.5699 0001488 262.2012 200.8770 15.70816577    18
STARLINK-11559 [DTC]    
1 62831C 25019C   26200.18451389  .00000618  00000+0  48055-5 0  2002
2 62831  43.0005 233.8301 0001577 255.8610 203.7845 15.70829534    15
STARLINK-11549 [DTC]    
1 62832C 25019D   26200.19006944  .00012556  00000+0  97565-4 0  2000
2 62832  43.0005 233.5722 0001493 259.9416 321.3398 15.70822559    16
STARLINK-11554 [DTC]    
1 62833C 25019E   26200.15673611  .00015303  00000+0  11889-3 0  2005
2 62833  43.0009 233.8466 0001669 262.1398 100.3507 15.70825780    15
STARLINK-11520 [DTC]    
1 62834C 25019F   26200.17618056  .00013414  00000+0  10420-3 0  2001
2 62834  43.0005 233.2059 0001698 261.9251  61.0852 15.70826951    18
STARLINK-11546 [DTC]    
1 62835C 25019G   26200.19354167 -.00004344  00000+0 -33751-4 0  2001
2 62835  43.0005 233.8488 0001505 261.1337 219.5648 15.70832404    18
STARLINK-11533 [DTC]    
1 62836C 25019H   26200.15187500  .00025321  00000+0  19673-3 0  2005
2 62836  43.0005 233.6503 0001467 261.2026 163.9532 15.70818384    13
STARLINK-11557 [DTC]    
1 62837C 25019J   26200.19631944 -.00000321  00000+0 -24920-5 0  2004
2 62837  43.0004 233.1583 0001589 261.6568 145.3234 15.70830437    12
STARLINK-11556 [DTC]    
1 62838C 25019K   26200.19562500  .00006566  00000+0  51011-4 0  2001
2 62838  43.0003 233.1001 0001485 270.3538 157.5857 15.70828912    17
STARLINK-11524 [DTC]    
1 62839C 25019L   26200.15673611  .00021289  00000+0  16542-3 0  2002
2 62839  43.0006 233.9187 0001691 255.9027  76.5369 15.70816792    16
STARLINK-11551 [DTC]    
1 62840C 25019M   26200.19979167 -.00011416  00000+0 -88698-4 0  2008
2 62840  43.0004 233.2108 0001442 270.9906 125.5783 15.70837181    19
STARLINK-11531 [DTC]    
1 62841C 25019N   26200.14840278  .00022105  00000+0  17174-3 0  2009
2 62841  43.0004 233.7440 0001558 263.5794 111.8569 15.70820118    17
STARLINK-32755          
1 62842C 25019P   26200.15326389  .00029638  00000+0  10737-2 0  2008
2 62842  43.0031  59.5042 0001450 277.6289 238.4082 15.27558173    13
STARLINK-32797          
1 62843C 25019Q   26200.14354167  .00051352  00000+0  18592-2 0  2008
2 62843  43.0003  66.5378 0001090 273.6141 165.8053 15.27567213    12
STARLINK-32794          
1 62844C 25019R   26200.17895833  .00033499  00000+0  12132-2 0  2008
2 62844  43.0037  66.6721 0001586 274.6019 218.4190 15.27565638    14
STARLINK-32807          
1 62845C 25019S   26200.17895833  .00020920  00000+0  75793-3 0  2007
2 62845  42.9997  58.9588 0001519 278.3691 181.8581 15.27558622    18
STARLINK-32804          
1 62846C 25019T   26200.15673611  .00045130  00000+0  16348-2 0  2004
2 62846  43.0015  66.5663 0001420 277.4379 192.2860 15.27551146    15
STARLINK-32799          
1 62847C 25019U   26200.15604167  .00042063  00000+0  15235-2 0  2001
2 62847  42.9997  66.3599 0001500 273.5921 277.2071 15.27558135    11
STARLINK-32781          
1 62848C 25019V   26200.20187500  .00012826  00000+0  46433-3 0  2004
2 62848  43.0016  66.2942 0001472 264.5875 100.6100 15.27586974    17
STARLINK-32809          
1 62849C 25019W   26200.14284722  .00049525  00000+0  17943-2 0  2001
2 62849  42.9998  66.2983 0001318 280.8265 253.9388 15.27544294    12
STARLINK-32868          
1 62854C 25022A   26200.20812500 -.00027408  00000+0 -80969-3 0  2006
2 62854  53.1563 235.8511 0001134  90.0080  22.6702 15.34407287    12
STARLINK-32867          
1 62855C 25022B   26200.18173611  .00031752  00000+0  93853-3 0  2008
2 62855  53.1583 237.7490 0001122  79.2254  58.8635 15.34361187    15
STARLINK-32860          
1 62856C 25022C   26200.19145833 -.00022099  00000+0 -65273-3 0  2006
2 62856  53.1567 237.4187 0000945  91.2969 251.7634 15.34411379    19
STARLINK-32873          
1 62857C 25022D   26200.19284722 -.00020911  00000+0 -61767-3 0  2003
2 62857  53.1566 237.4863 0000936  91.6702 224.1782 15.34409695    15
STARLINK-32866          
1 62858C 25022E   26200.19076389 -.00013754  00000+0 -40667-3 0  2005
2 62858  53.1563 236.0214 0001292  82.9916 247.1991 15.34373989    17
STARLINK-32869          
1 62859C 25022F   26200.17131944 -.00011205  00000+0 -33103-3 0  2009
2 62859  53.1583 237.7258 0001119  85.0433  30.4141 15.34399833    18
STARLINK-32831          
1 62860C 25022G   26200.17201389 -.00007567  00000+0 -22352-3 0  2002
2 62860  53.1568 237.3966 0000812  94.6892 199.0513 15.34401206    12
STARLINK-32859          
1 62861C 25022H   26200.21090278 -.00024388  00000+0 -72046-3 0  2006
2 62861  53.1579 237.6922 0000993  84.9607 179.5195 15.34407214    10
